"H","diameter","albedo","e","a","q","i","om","w","ma","ad","n","per_y","data_arc","n_obs_used"
15.09,4.874,0.098,0.150874605445134,3.2057806442428,2.72210975439902,14.0289362811996,44.4003154469185,59.6716614582521,14.6522753809411,3.68945153408658,0.171713076877156,5.73996052771612,8076,993
14.84,6.17,0.081,0.0443983475285062,2.62977902587137,2.51302118275756,28.8105904056607,39.0509557578318,74.4373944159289,284.297454187032,2.74653686898518,0.231113432613604,4.26468627211044,10590,1741
15.15,5.834,0.062,0.201520067707212,2.60252913179938,2.07806728494918,12.2204535004192,44.3861689104129,314.55475329742,179.956937997185,3.12699097864959,0.234752742476282,4.19857196542501,9618,1879
16.04,1.874,0.264,0.19799633502325,2.42647433390778,1.94604130876606,2.96222629883437,127.042480832259,292.770179439511,21.5101140831787,2.9069073590495,0.26075972900304,3.77982553953363,11012,1957
15.69,3.183,0.11,0.0860472197209001,2.99575466587469,2.73797830591026,1.66339661001924,218.239912259113,66.2579700561132,90.2502185826132,3.25353102583912,0.190083625734349,5.1852245534553,11414,795
15.06,3.124,0.234,0.17949531872039,2.33833779733299,1.91861710912477,5.44749498153237,295.512923847375,352.433415512306,184.441255739003,2.75805848554121,0.2756406080613,3.5757658869638,10717,2885
17.91,1.853,0.039,0.399116353202152,2.99667703477098,1.80065422492855,8.01471122376365,233.364985703544,115.03413036444,26.1099109941579,4.19269984461342,0.189995871667075,5.18761947151484,5409,135
14.33,8.64,0.059,0.0925318000382485,3.1848379361785,2.8901391491138,4.99652342482747,317.889662249676,279.101889107154,338.013705522384,3.4795367232432,0.173409572401832,5.68380551151827,23941,2084
15.85,4.211,0.063,0.218202170522845,2.84486432093805,2.22410875126636,7.75868796350979,220.178213492427,155.577116225101,93.4743037699243,3.46561989060973,0.20540534288636,4.79844520847179,7495,842
15.88,4.181,0.084,0.128674060917908,2.68021672227313,2.33534235247816,8.35858341726989,297.135171128076,228.455278757249,355.297341911824,3.0250910920681,0.224620404584715,4.38796415307778,9530,935
14.76,3.071,0.357,0.184988336460159,2.38478148093724,1.94362472195767,5.87119822094106,235.565713345579,101.25005660325,278.533560960178,2.82593823991682,0.267627777865047,3.68282504615259,12954,2649
17.58,2.131,0.039,0.200200740416502,3.06974836124139,2.45518246642852,6.39462776124151,11.4629928954337,30.446335292371,23.0834366324949,3.68431425605426,0.18325250060927,5.37851478201164,9953,161
16.23,3.841,0.048,0.14378756432637,2.72411076578187,2.33241751381485,13.5578456330042,315.449113183433,23.927696053579,147.071492115831,3.11580401774888,0.219213315215464,4.49619715115749,11338,479
15.57,2.776,0.159,0.10835802214182,2.97116344932647,2.64921405449738,10.3864313614543,183.014966451041,188.629742788567,27.9511668290136,3.29311284415555,0.192448379352474,5.12150991701705,12300,878
14.73,6.877,0.065,0.210146914224085,3.19761451918848,2.52564569510289,17.7731086740358,345.985893908417,143.071238792724,168.905075465047,3.86958334327407,0.172371282547551,5.71804229103915,9361,1261
11,15.595,0.2,0.12573609611338,2.55521381297814,2.23393120339929,15.7336946678355,86.1313360084121,276.820847577678,52.869629885101,2.876496422557,0.241303268265684,4.08459566441655,43203,5699
15.91,4.244,0.056,0.0896847716196262,3.13737142227424,2.85599698278163,23.6105857941125,207.692748330155,169.265677347933,313.190528720635,3.41874586176685,0.177359791438341,5.55721381590714,6316,334
16.02,4.2,0.048,0.151048352241733,2.80326365223274,2.37983529666384,4.05403723273183,296.193288528338,116.273053188848,234.406631182826,3.22669200780164,0.209994613555301,4.69357888128877,9350,564
16.66,3.212,0.057,0.254484199810197,2.33848388894175,1.74337668769537,6.00241914156424,65.9812170246614,235.09280073,82.4211089434336,2.93359109018813,0.275614778408723,3.5761009952301,9285,1281
16.32,4.107,0.032,0.0903898700413941,2.92721365034001,2.66262318890238,9.15295126559223,165.701557106229,125.062674572891,276.176959021671,3.19180411177763,0.196798797907907,5.00829422661812,8167,308
17.48,2.731,0.024,0.206663626256886,3.12528707499769,2.47940391498489,9.09438699574599,216.83134517277,255.970457223415,356.809096134782,3.77117023501049,0.178389463791403,5.5251373170788,5750,121
15.18,1.907,0.471,0.269274563953664,2.15146710784837,1.57213174052185,27.089726187702,173.343174445038,199.025333010447,158.605384797433,2.7308024751749,0.31232159046512,3.15580578947401,17636,3566
10.86,39.131,0.061,0.0797760792650942,3.23150791742955,2.97371088566291,16.9655090676002,165.246533551654,191.982709272907,80.2224047817027,3.48930494919619,0.169666553297456,5.80919612152183,44754,7774
15.45,2.697,0.221,0.182131069655133,2.32659059909175,1.9028461646296,8.08752517110377,62.8379030637202,96.285218112557,285.661164405366,2.75033503355391,0.277730848190211,3.54885418667114,12804,2456
15.89,4.819,0.048,0.148872359300385,3.08951870479298,2.62957476610778,23.9206933031384,102.293536059059,155.051067389238,9.06595841173239,3.54946264347817,0.181496322841321,5.43055786441068,7648,226
15.99,1.744,0.231,0.180440339248935,2.69041785386544,2.20495794359257,8.75341239907871,27.9641952098801,32.2414681799542,270.111182532929,3.17587776413831,0.223344092303416,4.41303941914242,12318,883
13.79,6.231,0.168,0.0466735258974737,3.08551209607799,2.94150036735473,10.4195270705451,90.0116787703914,2.54624492907111,148.543853105407,3.22952382480126,0.18184995332874,5.41999745023736,10726,3337
13.76,4.856,0.327,0.103877798134368,3.00645090765403,2.69414740716786,8.11768094161343,311.440562811714,351.556088550883,30.7549009856885,3.31875440814021,0.18907011960339,5.21301983325072,12303,2504
15.14,5.659,0.055,0.154745713226634,2.72159337538091,2.30043846739471,8.29114265563022,343.014660559086,84.5131100825319,182.384002611479,3.14274828336711,0.219517533926561,4.4899660894391,23614,2204
17.45,2.259,0.032,0.090681617025513,2.65183898786075,2.41136594035024,1.92448909072094,73.9669823815498,63.1135726639762,292.29224210078,2.89231203537126,0.228235579257169,4.31846027939835,7621,280
16.96,2.556,0.047,0.177506352337844,2.6013852118286,2.13962281185129,11.2967474918006,183.955470632275,83.6345140760572,272.212103420968,3.0631476118059,0.234907602972349,4.19580409870163,11993,348
15.61,3.963,0.094,0.111240015788416,3.20783319391729,2.85099377877933,20.6559014997878,96.7696663417298,32.6698176443777,21.2283747373435,3.56467260905526,0.171548295911222,5.74547405517584,8441,391
16.83,3.494,0.033,0.195184367730644,2.41522836323028,1.94381354222806,10.5540587072124,120.36420879931,140.403518744009,270.163578218911,2.8866431842325,0.262583101460069,3.75357849719602,8979,586
16.92,2.084,0.078,0.11124196146111,2.34859095711998,2.08732909238012,7.14256110506463,148.715402624201,209.546998720787,143.964445812955,2.60985282185983,0.273837547978309,3.59931021382659,9691,617
16.93,2.904,0.174,0.0859063643877663,2.73431483556318,2.49941978894842,4.22807009984293,330.287471750524,25.5597191826799,60.3409675950332,2.96920988217795,0.217987351921577,4.52148381398819,7620,361
15.8,5.214,0.037,0.309826036725697,2.73233785260549,1.88578844473713,15.2381390201685,21.7944307555069,282.107247786102,339.54422997873,3.57888726047385,0.218223981823355,4.51658096938855,8063,820
15.12,6.163,0.039,0.205041047877794,2.73260434852138,2.17230828946514,7.90901593034533,332.380058969133,352.416864306255,31.2701277398893,3.29290040757762,0.218192059319456,4.51724176600073,9364,1467
13.8,3.665,0.523,0.0937184892057264,2.41453631376182,2.1882496183037,6.68539228955915,51.1323450735528,15.3229770844858,132.599807452426,2.64082300921994,0.2626960010975,3.75196531066242,12985,6569
15.15,6.723,0.043,0.078545415541035,3.22302136629017,2.96986781377728,10.7482006691877,2.37049371787637,98.6507773107796,38.889222437853,3.47617491880307,0.170337118805552,5.78632708055074,23909,755
13.1,14.807,0.067,0.100004326176107,3.1723880043299,2.85513547958772,15.8540698698881,222.579824658828,207.177904976866,132.814206122158,3.48964052907208,0.17443138348303,5.65051003831225,11140,3919
15.71,2.127,0.27,0.169088781063425,2.23968399941516,1.8609785619868,4.62046954153425,309.533367833104,34.9314644027584,225.768065250885,2.61838943684353,0.294051874911297,3.35187892838594,10365,2051
16.88,2.206,0.083,0.088829614599047,2.57938205399699,2.35025654023674,3.31674152259548,41.1390427980873,325.715530883436,295.540647679133,2.80850756775724,0.237919787356978,4.14268310474198,8194,471
15.71,1.692,0.468,0.208144469087983,2.35601875540083,1.86562648239659,3.1098985442079,115.321000507553,158.953838292603,186.183763561107,2.84641102840507,0.27254358157697,3.61639880735626,9696,1927
13.94,10.534,0.058,0.127544168223975,3.16194843844303,2.75866035489472,16.4695328072635,317.435634302399,293.930909598785,54.5586292750848,3.56523652199135,0.175295956475536,5.62264129295595,12067,2147
15.58,3.045,0.144,0.134912577936642,2.3759782593351,2.05542890724679,3.20669297831561,158.611976287543,325.228674208598,191.972840808322,2.69652761142342,0.269116533644777,3.66245161536059,12673,2102
14.4,7.249,0.077,0.107689864660301,3.08473952721543,2.75254434501732,4.59625363445691,243.60687021072,291.067966928837,107.604992746463,3.41693470941354,0.181918273720046,5.41796194088966,12606,2249
16.86,2.84,0.096,0.0988276542914479,3.03547181234119,2.7354832534597,29.2978944404557,125.418259973502,170.248705176638,273.49693426509,3.33546037122268,0.186365177548848,5.28868266234563,8034,81
15.39,5.974,0.045,0.100933750197047,3.13473390879421,2.81833345950976,3.24790124717753,178.932900670655,172.581701541995,103.498829460245,3.45113435807866,0.17758367992681,5.5502075628446,12585,788
17.93,1.831,0.11,0.26396149955685,3.17298674082007,2.3354404026392,21.6330519440762,318.111565423293,51.7203785694253,288.593568408619,4.01053307900094,0.174382013512779,5.65210977619161,6261,48
